GLOBALSTAR M067 [+]     
1 32263U 07048A   23335.07032491 -.00000102  00000+0 -31440-4 0  9997
2 32263  51.9731 246.5298 0000360 132.9120 329.9642 12.40634501739467
GLOBALSTAR M070 [+]     
1 32264U 07048B   23335.52854619 -.00000064  00000+0  22202-3 0  9993
2 32264  51.9770  45.5799 0000151 146.1908 319.2258 12.62282573742486
GLOBALSTAR M066 [+]     
1 32265U 07048C   23335.26194410 -.00000039  00000+0  36254-3 0  9995
2 32265  51.9682 268.4376 0001349  61.6566 103.2604 12.62277292744713
GLOBALSTAR M068 [-]     
1 32266U 07048D   23335.83964472 -.00000037  00000+0  37265-3 0  9993
2 32266  51.9876 219.4528 0001309  32.6820  43.4178 12.62773016746382
GLOBALSTAR M079 [+]     
1 37188U 10054A   23335.55485125 -.00000081  00000+0  12439-3 0  9999
2 37188  52.0051  55.5717 0000740 121.8151 343.3154 12.62270237605277
GLOBALSTAR M074 [+]     
1 37189U 10054B   23335.16353087 -.00000075  00000+0  15958-3 0  9990
2 37189  52.0030  56.1718 0000522 122.4669 244.2815 12.62272245605838
GLOBALSTAR M076 [+]     
1 37190U 10054C   23335.52813941 -.00000079  00000+0  13812-3 0  9993
2 37190  52.0045  55.1839 0000891 160.9974 301.8305 12.62264020605593
GLOBALSTAR M077 [+]     
1 37191U 10054D   23335.52493557 -.00000077  00000+0  14852-3 0  9994
2 37191  52.0099  11.8906 0000217  91.0812  56.5919 12.62267079605967
